,acceptance-rate,act-avg,aliasNames,businessRepScore,city,cost-after-aid,displayName,engineeringRepScore,enrollment,hs-gpa-avg,institutionalControl,isPublic,nonResponder,nonResponderText,overallRank,percent-receiving-aid,primaryKey,primaryPhoto,primaryPhotoThumb,ranking,rankingDisplayName,rankingDisplayRank,rankingDisplayScore,rankingIsTied,rankingMaxPossibleScore,rankingNoteCharacter,rankingNoteText,rankingRankStatus,rankingSortRank,rankingType,region,sat-avg,schoolType,sortName,state,tuition,urlName,xwalkId,zip
0,7.0,32.0,,,Princeton,16793.0,Princeton University,4.1,5400.0,3.9,private,True,False,,1,60.0,2627,https://www.usnews.com/img/college-photo_31291.jpg,https://www.usnews.com/img/college-photo_31291_170x170mm.jpg,overall,National Universities,#1,100.0,False,,,,ranked,1,national-universities,,1400.0,national-universities,princetonuniversity,NJ,47140,princeton-university,186131,8544
1,5.0,32.0,,,Cambridge,16338.0,Harvard University,3.6,6710.0,4.0,private,True,False,,2,55.0,2155,https://www.usnews.com/img/college-photo_8866.jpg,https://www.usnews.com/img/college-photo_8866_170x170mm.jpg,overall,National Universities,#2,98.0,False,,,,ranked,2,national-universities,,1430.0,national-universities,harvarduniversity,MA,48949,harvard-university,166027,2138
2,8.0,32.0,UChicago,,Chicago,27767.0,University of Chicago,,5941.0,4.0,private,True,False,,3,42.0,1774,https://www.usnews.com/dims4/USNEWS/5b128f0/17177859217/resize/800x540/quality/85/?url=www.usnews.com%2Fcmsmedia%2F97%2Fa2%2F70c471924fa1ae47788aafc952b4%2F160727-univerity-of-chicago-hero-stock.jpg,https://www.usnews.com/dims4/USNEWS/196469f/17177859217/resize/170x170/quality/85/?url=www.usnews.com%2Fcmsmedia%2F97%2Fa2%2F70c471924fa1ae47788aafc952b4%2F160727-univerity-of-chicago-hero-stock.jpg,overall,National Universities,#3,96.0,True,,,,ranked,3,national-universities,,1450.0,national-universities,universityofchicago,IL,54825,university-of-chicago,144050,60637
3,6.0,32.0,,,New Haven,18385.0,Yale University,3.4,5472.0,,private,True,False,,3,50.0,1426,https://www.usnews.com/dims4/USNEWS/60348dd/17177859217/resize/800x540/quality/85/?url=www.usnews.com%2Fcmsmedia%2F63%2F64%2Facbcdd85417f8f9d141439d4a505%2F160727-yale-university-hero-stock.jpg,https://www.usnews.com/dims4/USNEWS/1ca230f/17177859217/resize/170x170/quality/85/?url=www.usnews.com%2Fcmsmedia%2F63%2F64%2Facbcdd85417f8f9d141439d4a505%2F160727-yale-university-hero-stock.jpg,overall,National Universities,#3,96.0,True,,,,ranked,3,national-universities,,1420.0,national-universities,yaleuniversity,CT,51400,yale-university,130794,6520
4,6.0,32.0,,,New York,21041.0,Columbia University,3.8,6113.0,,private,True,False,,5,48.0,2707,https://www.usnews.com/img/college-photo_19002.jpg,https://www.usnews.com/img/college-photo_19002_170x170mm.jpg,overall,National Universities,#5,95.0,True,,,,ranked,5,national-universities,,1430.0,national-universities,columbiauniversity,NY,57208,columbia-university,190150,10027
5,8.0,33.0,MIT,4.6,Cambridge,20331.0,Massachusetts Institute of Technology,4.9,4524.0,,private,True,False,,5,58.0,2178,https://www.usnews.com/img/college-photo_6935.jpg,https://www.usnews.com/img/college-photo_6935_170x170mm.jpg,overall,National Universities,#5,95.0,True,,,,ranked,5,national-universities,,1460.0,national-universities,massachusettsinstituteoftechnology,MA,49892,mit,166683,2139
6,5.0,31.0,,,Stanford,19296.0,Stanford University,4.8,7034.0,,private,True,False,,5,47.0,1305,https://www.usnews.com/img/college-photo_10369.jpg,https://www.usnews.com/img/college-photo_10369_170x170mm.jpg,overall,National Universities,#5,95.0,True,,,,ranked,5,national-universities,,1380.0,national-universities,stanforduniversity,CA,49617,stanford,243744,94305
7,9.0,32.0,UPenn,4.8,Philadelphia,25441.0,University of Pennsylvania,3.6,10019.0,3.9,private,True,False,,8,47.0,3378,https://www.usnews.com/img/college-photo_2743.jpg,https://www.usnews.com/img/college-photo_2743_170x170mm.jpg,overall,National Universities,#8,93.0,False,,,,ranked,8,national-universities,,1380.0,national-universities,universityofpennsylvania,PA,53534,university-of-pennsylvania,215062,19104
8,11.0,31.0,,,Durham,23374.0,Duke University,3.7,6609.0,,private,True,False,,9,41.0,2920,https://www.usnews.com/dims4/USNEWS/7e5b5e0/17177859217/resize/800x540/quality/85/?url=www.usnews.com%2Fcmsmedia%2F57%2F74%2Fc95b0bcc49d9972533add4f11e13%2F160728-duke-university-hero-stock.jpg,https://www.usnews.com/dims4/USNEWS/3f12795/17177859217/resize/170x170/quality/85/?url=www.usnews.com%2Fcmsmedia%2F57%2F74%2Fc95b0bcc49d9972533add4f11e13%2F160728-duke-university-hero-stock.jpg,overall,National Universities,#9,92.0,False,,,,ranked,9,national-universities,,1380.0,national-universities,dukeuniversity,NC,53744,duke-university,198419,27708
9,8.0,34.0,CalTech Cal Tech,,Pasadena,23973.0,California Institute of Technology,4.6,979.0,,private,True,False,,10,51.0,1131,https://www.usnews.com/img/college-photo_93.jpg,https://www.usnews.com/img/college-photo_93_170x170mm.jpg,overall,National Universities,#10,91.0,False,,,,ranked,10,national-universities,,1510.0,national-universities,californiainstituteoftechnology,CA,49908,cal-tech,110404,91125
10,11.0,30.0,,,Hanover,23312.0,Dartmouth College,3.2,4310.0,,private,True,False,,11,50.0,2573,https://www.usnews.com/img/college-photo_33512.jpg,https://www.usnews.com/img/college-photo_33512_170x170mm.jpg,overall,National Universities,#11,90.0,True,,,,ranked,11,national-universities,,1350.0,national-universities,dartmouthcollege,NH,52950,dartmouth-college,182670,3755
11,12.0,32.0,JHU,,Baltimore,30067.0,Johns Hopkins University,3.9,6117.0,3.9,private,True,False,,11,45.0,2077,https://www.usnews.com/img/college-photo_9422.jpg,https://www.usnews.com/img/college-photo_9422_170x170mm.jpg,overall,National Universities,#11,90.0,True,,,,ranked,11,national-universities,,1420.0,national-universities,johnshopkinsuniversity,MD,52170,jhu,162928,21218
12,11.0,32.0,,,Evanston,31087.0,Northwestern University,4.0,8353.0,,private,True,False,,11,43.0,1739,https://www.usnews.com/img/college-photo_3277.jpg,https://www.usnews.com/img/college-photo_3277_170x170mm.jpg,overall,National Universities,#11,90.0,True,,,,ranked,11,national-universities,,1400.0,national-universities,northwesternuniversity,IL,52678,northwestern,147767,60208
13,9.0,31.0,,,Providence,24482.0,Brown University,3.3,6926.0,,private,True,False,,14,41.0,3401,https://www.usnews.com/img/college-photo_26074.jpg,https://www.usnews.com/img/college-photo_26074_170x170mm.jpg,overall,National Universities,#14,86.0,True,,,,ranked,14,national-universities,,1370.0,national-universities,brownuniversity,RI,53419,brown-university,217156,2912
14,14.0,31.0,,4.2,Ithaca,28068.0,Cornell University,4.2,14566.0,,private,True,False,,14,44.0,2711,https://www.usnews.com/img/college-photo_73.jpg,https://www.usnews.com/img/college-photo_73_170x170mm.jpg,overall,National Universities,#14,86.0,True,,,,ranked,14,national-universities,,1330.0,national-universities,cornelluniversity,NY,52853,cornell-university,190415,14853
15,15.0,32.0,,,Houston,23996.0,Rice University,3.7,3893.0,,private,True,False,,14,37.0,3604,https://www.usnews.com/img/college-photo_5187.jpg,https://www.usnews.com/img/college-photo_5187_170x170mm.jpg,overall,National Universities,#14,86.0,True,,,,ranked,14,national-universities,,1410.0,national-universities,riceuniversity,TX,45608,rice,227757,77251
16,11.0,32.0,,,Nashville,23323.0,Vanderbilt University,3.4,6871.0,3.8,private,True,False,,14,46.0,3535,https://www.usnews.com/img/college-photo_313.jpg,https://www.usnews.com/img/college-photo_313_170x170mm.jpg,overall,National Universities,#14,86.0,True,,,,ranked,14,national-universities,,1420.0,national-universities,vanderbiltuniversity,TN,47664,vanderbilt,221999,37240
17,19.0,32.0,Notre Dame,4.1,Notre Dame,29653.0,University of Notre Dame,3.3,8530.0,,private,True,False,,18,47.0,1840,https://www.usnews.com/img/college-photo_154.jpg,https://www.usnews.com/img/college-photo_154_170x170mm.jpg,overall,National Universities,#18,85.0,True,,,,ranked,18,national-universities,,1350.0,national-universities,universityofnotredame,IN,51505,notre-dame,152080,46556
18,17.0,32.0,WashU Washington University in St Louis Washington University in Saint Louis,4.0,St. Louis,29245.0,Washington University in St. Louis,3.3,7540.0,,private,True,False,,18,41.0,2520,https://www.usnews.com/img/college-photo_826.jpg,https://www.usnews.com/img/college-photo_826_170x170mm.jpg,overall,National Universities,#18,85.0,True,,,,ranked,18,national-universities,,1400.0,national-universities,washingtonuniversityinstlouis,MO,51533,washington-university-st-louis,179867,63130
19,17.0,30.0,,3.8,Washington,29667.0,Georgetown University,,7453.0,,private,True,False,,20,34.0,1445,https://www.usnews.com/img/college-photo_27270.jpg,https://www.usnews.com/img/college-photo_27270_170x170mm.jpg,overall,National Universities,#20,80.0,False,,,,ranked,20,national-universities,,1320.0,national-universities,georgetownuniversity,DC,52300,georgetown-university,131496,20057
20,25.0,30.0,,3.8,Atlanta,24264.0,Emory University,,6861.0,3.7,private,True,False,,21,42.0,1564,https://www.usnews.com/img/college-photo_33208.jpg,https://www.usnews.com/img/college-photo_33208_170x170mm.jpg,overall,National Universities,#21,78.0,True,,,,ranked,21,national-universities,,1290.0,national-universities,emoryuniversity,GA,49392,emory-university,139658,30322
21,16.0,29.0,UC Berkeley Cal Berkeley University of California Berkeley,4.5,Berkeley,49614.0,University of California--Berkeley,4.7,29311.0,3.9,public,True,False,,21,23.0,1312,https://www.usnews.com/img/college-photo_1993.jpg,https://www.usnews.com/img/college-photo_1993_170x170mm.jpg,overall,National Universities,#21,78.0,True,,,,ranked,21,national-universities,,1300.0,national-universities,universityofcaliforniaberkeley,CA,42112,uc-berkeley,110635,94720
22,18.0,25.0,UCLA University of California Los Angeles,,Los Angeles,42896.0,University of California--Los Angeles,3.8,30873.0,3.9,public,True,False,,21,15.0,1315,https://www.usnews.com/img/college-photo_5631.jpg,https://www.usnews.com/img/college-photo_5631_170x170mm.jpg,overall,National Universities,#21,78.0,True,,,,ranked,21,national-universities,,1160.0,national-universities,universityofcalifornialosangeles,CA,41270,ucla,110662,90095
23,17.0,30.0,USC Southern Cal,4.1,Los Angeles,33112.0,University of Southern California,3.6,18794.0,3.7,private,True,False,,21,33.0,1328,https://www.usnews.com/img/college-photo_11612.jpg,https://www.usnews.com/img/college-photo_11612_170x170mm.jpg,overall,National Universities,#21,78.0,True,,,,ranked,21,national-universities,,1280.0,national-universities,universityofsoutherncalifornia,CA,54259,usc,123961,90089
24,22.0,31.0,CMU,4.2,Pittsburgh,33550.0,Carnegie Mellon University,4.3,6673.0,3.8,private,True,False,,25,40.0,3242,https://www.usnews.com/img/college-photo_33151.jpg,https://www.usnews.com/img/college-photo_33151_170x170mm.jpg,overall,National Universities,#25,76.0,True,,,,ranked,25,national-universities,,1380.0,national-universities,carnegiemellonuniversity,PA,53910,carnegie-mellon-university,211440,15213
